PROBA-1                 
1 26958U 01049B   26065.90225551  .00002986  00000+0  19684-3 0  9997
2 26958  97.9623  70.8825 0056882 108.2600 252.4828 15.07002164328217
CUTE-1 (CO-55)          
1 27844U 03031E   26065.47274805  .00000476  00000+0  22533-3 0  9992
2 27844  98.6780  75.3114 0010574 120.8066 239.4155 14.24263129177059
CUBESAT XI-IV (CO-57)   
1 27848U 03031J   26065.48029571  .00000387  00000+0  18933-3 0  9995
2 27848  98.6809  75.1140 0010251 137.2488 222.9489 14.23558642176764
APRIZESAT 4             
1 35684U 09041D   26065.14798102  .00001000  00000+0  12625-3 0  9990
2 35684  98.1492 138.3975 0042211 296.5139  63.1748 14.83699785896082
APRIZESAT 3             
1 35686U 09041F   26065.83494550  .00002741  00000+0  24132-3 0  9997
2 35686  98.1899 214.2676 0063121  46.0435 314.5967 14.95889516901075
PROBA-2                 
1 36037U 09059B   26065.83142891  .00000439  00000+0  11294-3 0  9992
2 36037  98.2428 250.6044 0012219 233.7411 126.2658 14.54789095866643
APRIZESAT 5             
1 37792U 11044E   26065.57988650  .00002105  00000+0  27406-3 0  9994
2 37792  98.2402 355.7657 0051926 334.6195  25.2467 14.80846140783603
APRIZESAT 6             
1 37793U 11044F   26065.52274729  .00001376  00000+0  20124-3 0  9994
2 37793  98.2420 333.9100 0044400  55.3828 120.7989 14.76744408781993
PROBA-V                 
1 39159U 13021A   26065.36203385  .00000120  00000+0  70463-4 0  9999
2 39159  98.3502  49.0926 0005358  77.5055 282.6724 14.23572682666487
APRIZESAT 7             
1 39416U 13066A   26065.37032686  .00001976  00000+0  20189-3 0  9998
2 39416  97.7598  20.1600 0035575 189.7319 170.3214 14.91270640665900
APRIZESAT 8             
1 39425U 13066K   26065.82916193  .00001916  00000+0  21427-3 0  9992
2 39425  97.8115  14.8093 0044587 262.6906  96.9242 14.87414468664454
BUGSAT-1 (TITA)         
1 40014U 14033E   26065.86340142  .00005892  00000+0  32122-3 0  9993
2 40014  98.0430 152.5272 0029053 167.9197 192.2736 15.14447796640343
SAUDISAT 4              
1 40016U 14033G   26065.65447111  .00001195  00000+0  16430-3 0  9992
2 40016  97.7406 215.4349 0045911  48.3897 312.1234 14.79383543630915
APRIZESAT 9             
1 40018U 14033J   26065.37430920  .00001495  00000+0  22692-3 0  9993
2 40018  97.8875 201.1944 0066610 169.7785 190.4796 14.74064970628411
APRIZESAT 10            
1 40019U 14033K   26065.80959450  .00001175  00000+0  19216-3 0  9999
2 40019  97.9474 195.1588 0077858 240.2283 119.1163 14.70745984627207
TECHDEMOSAT-1 (TDS-1)   
1 40076U 14037H   26065.87723420  .00014148  00000+0  83870-3 0  9990
2 40076  98.3778  48.1225 0004533 249.7402 110.3338 15.11500359632769
TECHNOSAT               
1 42829U 17042E   26065.43483603  .00005080  00000+0  36782-3 0  9990
2 42829  97.4152 227.1244 0019780  85.9326 274.4161 15.04252312471254
FLYING LAPTOP           
1 42831U 17042G   26065.84385751  .00005714  00000+0  45626-3 0  9994
2 42831  97.4265 225.6450 0018910 104.6059 255.7264 15.00497012471104
HAWK-A                  
1 43765U 18099H   26065.45731217  .00008332  00000+0  34986-3 0  9999
2 43765  97.4055 119.0664 0034329 287.3914  72.3569 15.23165898397457
HAWK-B                  
1 43794U 18099AN  26065.09682656  .00007803  00000+0  34558-3 0  9990
2 43794  97.4104 118.3322 0031513 306.5962  53.2375 15.21466985397357
HAWK-C                  
1 43799U 18099AT  26065.39476804  .00009761  00000+0  36980-3 0  9990
2 43799  97.4032 119.4328 0040470 289.5358  70.1512 15.26329234398229
SALSAT                  
1 46495U 20068K   26065.39904136  .00011274  00000+0  41380-3 0  9991
2 46495  97.8855  62.3380 0008503 310.6744  49.3754 15.28102969299651
HAWK-2C                 
1 47502U 21006CT  26065.08647923  .00007634  00000+0  24007-3 0  9990
2 47502  97.2418 111.4790 0006586 197.2619 162.8401 15.33219899283694
HAWK-2A                 
1 47505U 21006CW  26065.61214211  .00009056  00000+0  28408-3 0  9991
2 47505  97.2463 112.6110 0006111 199.1222 160.9792 15.33248346283771
HAWK-2B                 
1 47508U 21006CZ  26065.08683353  .00008135  00000+0  25571-3 0  9997
2 47508  97.2334 110.6010 0006672 198.7979 161.3018 15.33214288283699
HAWK-3B                 
1 48931U 21059BE  26065.40970766  .00040778  00000+0  48057-3 0  9992
2 48931  97.6715 253.0217 0005291 350.9783   9.1377 15.61262501261773
HAWK-3C                 
1 48948U 21059BX  26065.28128879  .00039525  00000+0  46609-3 0  9995
2 48948  97.6862 258.3753 0005749 352.6085   7.5086 15.61250200261759
HAWK-3A                 
1 48957U 21059CG  26065.08882924  .00037057  00000+0  43742-3 0  9994
2 48957  97.6797 255.4580 0005343 352.8523   7.2656 15.61239739261722
HAWK-5C                 
1 52754U 22057Y   26065.81437778  .00027435  00000+0  53693-3 0  9992
2 52754  97.6453 219.2821 0005622  85.5152 274.6739 15.47373806210493
HAWK-5B                 
1 52756U 22057AA  26065.87891288  .00028050  00000+0  54878-3 0  9990
2 52756  97.6455 217.6905 0005600  79.9984 280.1897 15.47378760210501
HAWK-5A                 
1 52757U 22057AB  26065.81396647  .00027991  00000+0  54764-3 0  9991
2 52757  97.6456 218.4560 0006016  82.3305 277.8627 15.47375994210494
HAWK-6B                 
1 55324U 23011A   26065.52327582  .00008286  00000+0  36491-3 0  9998
2 55324  40.5119 230.4147 0002450   0.8362 359.2451 15.21857101172192
HAWK-6C                 
1 55326U 23011C   26065.45706059  .00007836  00000+0  34561-3 0  9998
2 55326  40.4835 227.6749 0002970 347.2114  12.8619 15.21846806172192
HAWK-6A                 
1 55327U 23011D   26065.78518394  .00008953  00000+0  39351-3 0  9991
2 55327  40.4981 227.3681 0002606 345.4771  14.5962 15.21859003172241
HAWK-7A                 
1 56191U 23054P   26065.41084290  .00007900  00000+0  30847-3 0  9993
2 56191  97.2836 315.3624 0004763  58.0668 302.1034 15.26149730161342
HAWK-7B                 
1 56193U 23054R   26065.47633186  .00008039  00000+0  31387-3 0  9999
2 56193  97.2868 313.6516 0003848  67.8152 292.3495 15.26148479161350
HAWK-7C                 
1 56200U 23054Y   26065.41064848  .00007866  00000+0  30721-3 0  9993
2 56200  97.2841 314.3900 0003855  58.9781 301.1836 15.26148730161349
